SES-4                   
1 38087U 12007A   17080.83692962 -.00000180  00000-0  00000-0 0  9997
2 38087   0.0169  70.0591 0002128 275.4086 113.3412  1.00272994 18447
BEIDOU G5               
1 38091U 12008A   17080.93377944  .00000045  00000-0  00000-0 0  9993
2 38091   2.0714  55.0634 0002925 241.0616 278.3992  1.00269196 18641
INTELSAT 22 (IS-22)     
1 38098U 12011A   17080.30251973 -.00000071  00000-0  00000-0 0  9998
2 38098   0.0145 289.4644 0001869  77.6325 352.8941  1.00271748 18002
APSTAR 7                
1 38107U 12013A   17080.86834875 -.00000114  00000-0  00000-0 0  9998
2 38107   0.0059 121.2581 0002730 254.1395 193.2691  1.00272772 18330
YAHSAT 1B               
1 38245U 12016A   17080.37037560  .00000114  00000-0  00000-0 0  9995
2 38245   0.0153 201.6245 0001752 164.1310 354.2351  1.00271774 18083
JCSAT-13                
1 38331U 12023A   17080.15876543 -.00000369  00000-0  00000-0 0  9990
2 38331   0.0194 162.0452 0002740 232.6320 325.3406  1.00269077 17693
VINASAT-2               
1 38332U 12023B   17080.78242642 -.00000341  00000-0  00000-0 0  9997
2 38332   0.0205 266.3467 0002572 120.2716 206.3661  1.00271537 17779
NIMIQ 6                 
1 38342U 12026A   17080.75459090 -.00000186  00000-0  00000-0 0  9992
2 38342   0.0190 161.5290 0002549 209.3278 349.1487  1.00270535 17767
CHINASAT 2A (ZX 2A)     
1 38352U 12028A   17080.78946639 -.00000306  00000-0  00000-0 0  9992
2 38352   0.0164 174.2682 0004860 176.3584 211.2911  1.00275245 17546
INTELSAT 19 (IS-19)     
1 38356U 12030A   17080.04239573 -.00000069  00000-0  00000-0 0  9996
2 38356   0.0133 265.3193 0003033 103.8463 350.8280  1.00272298 16630
ECHOSTAR 17             
1 38551U 12035A   17080.79889349 -.00000087  00000-0  00000-0 0  9992
2 38551   0.0216 173.6037 0001936 181.1067   5.2875  1.00270023 17238
METEOSAT-10 (MSG-3)     
1 38552U 12035B   17080.50337479 -.00000020  00000-0  00000-0 0  9991
2 38552   0.7429  48.5226 0000102 109.2499 202.2174  1.00271876 17054
SES-5                   
1 38652U 12036A   17080.15991872  .00000022  00000-0  00000-0 0  9998
2 38652   0.0380 259.4123 0001938 103.1602 238.8434  1.00273722 10666
TIANLIAN 1-03           
1 38730U 12040A   17080.47297767  .00000060  00000-0  00000-0 0  9999
2 38730   0.0961 263.4962 0002147 143.4486 313.0617  1.00274227 14871
INTELSAT 20 (IS-20)     
1 38740U 12043A   17080.31235708 -.00000037  00000-0  00000-0 0  9998
2 38740   0.0373 157.7219 0000672  38.9029 163.3730  1.00270564 16998
HYLAS 2                 
1 38741U 12043B   17080.41627193  .00000142  00000-0  00000-0 0  9999
2 38741   0.0188 211.8982 0001825 163.7703 344.3258  1.00274607 16931
INTELSAT 21 (IS-21)     
1 38749U 12045A   17080.66287046 -.00000297  00000-0  00000-0 0  9997
2 38749   0.0147 210.6034 0002086 158.8842 350.5052  1.00274269 16719
ASTRA 2F                
1 38778U 12051A   17080.42409221  .00000137  00000-0  00000-0 0  9993
2 38778   0.0579 228.0275 0001751  55.3785  76.5631  1.00270920  7331
GSAT-10                 
1 38779U 12051B   17080.27231069 -.00000178  00000-0  00000-0 0  9996
2 38779   0.0090 174.1832 0001891 231.8325 313.9882  1.00272583 16283
INTELSAT 23 (IS-23)     
1 38867U 12057A   17080.64906387 -.00000297  00000-0  00000-0 0  9995
2 38867   0.0342 256.1898 0001794 122.8717 340.9340  1.00268633 16167
BEIDOU G6               
1 38953U 12059A   17080.86685789 -.00000188  00000-0  10000-3 0  9990
2 38953   1.4757  79.9302 0004419 190.3596 305.3879  1.00272434 16213
LUCH 5B                 
1 38977U 12061A   17080.83705920 -.00000140  00000-0  00000-0 0  9990
2 38977   3.3665  75.1326 0003869 285.7440 103.7058  1.00272856 16348
YAMAL 300K              
1 38978U 12061B   17080.69393589  .00000059  00000-0  00000-0 0  9997
2 38978   0.0111 127.6203 0001556   3.9025 120.6222  1.00273370 16035
STAR ONE C3             
1 38991U 12062A   17080.88819948 -.00000261  00000-0  00000-0 0  9992
2 38991   0.0159 154.8276 0002269 207.9877  61.4946  1.00270102 15930
EUTELSAT 21B            
1 38992U 12062B   17080.44247724  .00000117  00000-0  00000-0 0  9991
2 38992   0.0666   6.4754 0002255   5.1028 348.4156  1.00271491 16022
ECHOSTAR 16             
1 39008U 12065A   17079.67530755 -.00000294  00000-0  00000-0 0  9992
2 39008   0.0116 166.0906 0001814 190.3791   3.5167  1.00273587 15968
CHINASAT 12 (ZX 12)     
1 39017U 12067A   17080.82921988 -.00000220  00000-0  00000-0 0  9994
2 39017   0.0180 142.6694 0002816 225.8432 197.0321  1.00272772 15878
EUTELSAT 70B            
1 39020U 12069A   17080.30697891 -.00000056  00000-0  00000-0 0  9993
2 39020   0.0658 351.0711 0001635 355.5782  13.3348  1.00270906 15679
YAMAL 402               
1 39022U 12070A   17080.02002557  .00000073  00000-0  10000-3 0  9997
2 39022   0.0080 142.6127 0002922 236.8181 221.3877  1.00273081 15753
SKYNET 5D               
1 39034U 12075A   17080.80507795  .00000087  00000-0  00000-0 0  9996
2 39034   0.0682   2.8903 0003890 359.0150 160.1377  1.00271530 15686
MEXSAT 3                
1 39035U 12075B   17079.82298805 -.00000038  00000-0  00000-0 0  9993
2 39035   0.0188 190.1205 0001626 180.6012 349.2697  1.00273077 15339
TDRS 11                 
1 39070U 13004A   17079.89202495  .00000081  00000-0  00000-0 0  9999
2 39070   5.5083 328.7410 0011125 301.7254  58.0865  1.00267974 12853
AMAZONAS 3              
1 39078U 13006A   17080.67110978 -.00000295  00000-0  00000-0 0  9999
2 39078   0.0305 215.7580 0001302 121.2985  22.9266  1.00273157 11048
AZERSPACE 1             
1 39079U 13006B   17080.37485024  .00000121  00000-0  00000-0 0  9991
2 39079   0.0215 172.2019 0002234 216.3385 331.4718  1.00269485 14972
EUTELSAT 117 WEST A     
1 39122U 13012A   17079.82844792 -.00000025  00000-0  00000-0 0  9990
2 39122   0.0148 189.8266 0002648 172.1485 358.0260  1.00270254 14617
ANIK G1                 
1 39127U 13014A   17080.79941313 -.00000086  00000-0  00000-0 0  9999
2 39127   0.0299 262.4169 0002046  67.9003  29.6602  1.00272440 14427
CHINASAT 11 (ZX 11)     
1 39157U 13020A   17080.79700931 -.00000303  00000-0  00000-0 0  9990
2 39157   0.0238 246.7519 0002747  61.6381 256.0144  1.00270387 14318
EUTELSAT 7B             
1 39163U 13022A   17080.48288410  .00000035  00000-0  00000-0 0  9999
2 39163   0.0210  35.3975 0005640 332.5848 352.0267  1.00270610 14161
SES-6                   
1 39172U 13026A   17080.07172523 -.00000273  00000-0  00000-0 0  9990
2 39172   0.0400  14.1962 0001561 359.7377 150.1622  1.00272306 13894
IRNSS-1A                
1 39199U 13034A   17078.67835085  .00000098  00000-0  00000-0 0  9994
2 39199  28.6725 116.5819 0021303 186.9260 173.1349  1.00273107 13794
ALPHASAT                
1 39215U 13038A   17080.51729086  .00000127  00000-0  00000-0 0  9999
2 39215   1.6227  29.9240 0001902 332.0028  28.3459  1.00275067 10219
INSAT-3D                
1 39216U 13038B   17080.27483814 -.00000169  00000-0  00000-0 0  9996
2 39216   0.0536 104.1766 0001250 257.9567 357.8557  1.00273471 13280
EUTELSAT 25B            
1 39233U 13044A   17080.43149974  .00000131  00000-0  00000-0 0  9994
2 39233   0.0575   2.5566 0001788  13.4106 344.0270  1.00276890 13065
GSAT-7                  
1 39234U 13044B   17080.29720599 -.00000089  00000-0  00000-0 0  9990
2 39234   0.0304 125.9438 0003040 181.5157  52.5015  1.00272375 11521
AMOS-4                  
1 39237U 13045A   17080.32213989 -.00000006  00000-0  00000-0 0  9997
2 39237   0.0315 130.3873 0002274 209.0239  20.5682  1.00273551 13124
ASTRA 2E                
1 39285U 13056A   17080.42323541  .00000138  00000-0  00000-0 0  9994
2 39285   0.0792  49.5747 0002261 303.5196   6.8913  1.00275081 12634
SIRIUS FM-6             
1 39360U 13058A   17080.82399499 -.00000029  00000-0  00000-0 0  9999
2 39360   0.0237 104.4634 0000409  84.2042 171.3208  1.00271035 12330
RADUGA-1M 3             
1 39375U 13062A   17079.86084281 -.00000052  00000-0  00000-0 0  9998
2 39375   0.0115 190.8709 0001248 178.3972 189.2127  1.00273501 12284
SES-8                   
1 39460U 13071A   17080.23911253 -.00000282  00000-0  00000-0 0  9999
2 39460   0.0432 268.4955 0002352 127.9841 323.5246  1.00271207 10686
INMARSAT 5-F1           
1 39476U 13073A   17080.91627890  .00000015  00000-0  00000-0 0  9997
2 39476   0.0018  86.0167 0000251  74.0393  52.0009  1.00272375 11760
TKSAT-1 (TUPAC KATARI)  
1 39481U 13075A   17080.41923427 -.00000207  00000-0  00000-0 0  9999
2 39481   0.0426   0.0546 0002784 345.3146 257.4718  1.00273454 12004
EXPRESS-AM5             
1 39487U 13077A   17080.85039816 -.00000293  00000-0  00000-0 0  9990
2 39487   0.0392 310.8154 0001317 170.9870 143.9122  1.00272468 12536
GSAT-14                 
1 39498U 14001A   17080.29736806 -.00000089  00000-0  00000-0 0  9994
2 39498   0.0559 249.1507 0003915 153.5935 317.2745  1.00272250 11618
THAICOM 6               
1 39500U 14002A   17080.84715845 -.00000133  00000-0  00000-0 0  9990
2 39500   0.0479 135.9713 0001955 283.2435 143.7573  1.00272093 11618
TDRS 12                 
1 39504U 14004A   17080.54946549 -.00000280  00000-0  00000-0 0  9993
2 39504   6.0706 336.1942 0003415  20.3213 339.6387  1.00269708 10445
ABS-2                   
1 39508U 14006A   17080.29469355 -.00000099  00000-0  00000-0 0  9994
2 39508   0.0131 290.7132 0003785  73.0418 356.2362  1.00271958 11497
ATHENA-FIDUS            
1 39509U 14006B   17080.39753091  .00000141  00000-0  00000-0 0  9996
2 39509   0.0167 190.3901 0001460 190.5883 339.0276  1.00270945 11246
TURKSAT 4A              
1 39522U 14007A   17080.38582867  .00000133  00000-0  00000-0 0  9993
2 39522   0.0650 273.2220 0003506  46.8437  39.8972  1.00274817 11165
EXPRESS-AT1             
1 39612U 14010A   17080.80742603  .00000066  00000-0  00000-0 0  9995
2 39612   0.0327 300.3243 0000247 152.2278  73.6124  1.00272392 11214
